INTELSAT 21 (IS-21)     
1 38749U 12045A   26157.47854321 -.00000272  00000+0  00000+0 0  9998
2 38749   0.0420  85.4143 0002082 357.2620 286.5091  1.00273024 50411
INTELSAT 23 (IS-23)     
1 38867U 12057A   26157.33696431 -.00000272  00000+0  00000+0 0  9993
2 38867   0.0119 322.5848 0000323 188.7340 171.7155  1.00267444 49846
FM-6                    
1 39360U 13058A   26157.53833660 -.00000004  00000+0  00000+0 0  9996
2 39360   0.0130  46.8915 0003610 120.7199 164.8349  1.00277692 45962
INTELSAT 30 (IS-30)     
1 40271U 14062A   26157.38471417 -.00000137  00000+0  00000+0 0  9993
2 40271   0.0244  46.7427 0000996 357.6338 253.8489  1.00269463  6685
DIRECTV 14              
1 40333U 14078B   26157.54171661 -.00000112  00000+0  00000+0 0  9998
2 40333   0.0096 338.0012 0000466 191.4443 181.2966  1.00270474 41934
DIRECTV 15              
1 40663U 15026A   26157.53330929 -.00000090  00000+0  00000+0 0  9996
2 40663   0.0179 359.7358 0000280 227.3702 116.9602  1.00273654 40356
SKY MEXICO-1            
1 40664U 15026B   26157.54570330 -.00000221  00000+0  00000+0 0  9996
2 40664   0.0126  39.5462 0002289  52.9131 280.1621  1.00272186 40340
INTELSAT 34 (IS-34)     
1 40874U 15039A   26157.33644431 -.00000272  00000+0  00000+0 0  9990
2 40874   0.0091 337.6092 0000813  86.6052 256.1803  1.00283691 39528
INTELSAT 31 (IS-31)     
1 41581U 16035A   26157.47126317 -.00000138  00000+0  00000+0 0  9997
2 41581   0.0185 257.9075 0000726 329.0435 102.5549  1.00273751 36574
INTELSAT 36 (IS-36)     
1 41747U 16053A   26157.50362510 -.00000010  00000+0  00000+0 0  9991
2 41747   0.0108 357.9803 0001996 341.5158 165.2215  1.00267189 35858
INTELSAT 32E (IS-32E)   
1 41945U 17007B   26157.48148988 -.00000256  00000+0  00000+0 0  9991
2 41945   0.0182 342.9968 0000411   7.9347  34.1321  1.00273937 34118
INTELSAT 35E (IS-35E)   
1 42818U 17041A   26157.48322323 -.00000224  00000+0  00000+0 0  9991
2 42818   0.0138  46.2265 0001915  28.2503 319.9042  1.00273362 32702
INTELSAT 37E (IS-37E)   
1 42950U 17059A   26157.41520743 -.00000127  00000+0  00000+0 0  9998
2 42950   0.0117  42.3787 0002580  49.6271 294.3179  1.00271718 31956
AZERSPACE 2 (IS-38)     
1 43632U 18074A   26156.94604939  .00000149  00000+0  00000+0 0  9994
2 43632   0.0175 331.2890 0001508 106.1415 202.6298  1.00271693 28335
HORIZONS-3E             
1 43633U 18074B   26157.61047884 -.00000017  00000+0  00000+0 0  9995
2 43633   0.0028 267.2125 0000888   3.6571  12.9260  1.00270152 28235
AT&T T-16               
1 44333U 19034A   26156.61452913 -.00000103  00000+0  00000+0 0  9998
2 44333   0.0214  58.9245 0000379 229.6587  85.8428  1.00272858 25518
INTELSAT 39 (IS-39)     
1 44476U 19049B   26157.63121133  .00000048  00000+0  00000+0 0  9999
2 44476   0.0173 316.2772 0000278 327.6995 260.2628  1.00266909 25022
GALAXY 30 (G-30)        
1 46114U 20056C   26157.53660325  .00000050  00000+0  00000+0 0  9993
2 46114   0.0173 344.6466 0002315  88.8814 249.5925  1.00272592 21186
GALAXY 33 (G-33)        
1 54026U 22128A   26157.53504324  .00000092  00000+0  00000+0 0  9998
2 54026   0.0218  49.3833 0001942  26.4775 238.7213  1.00272166 13631
GALAXY 34 (G-34)        
1 54027U 22128B   26156.96541106  .00000071  00000+0  00000+0 0  9991
2 54027   0.0081  33.4234 0002001  61.9178  17.6089  1.00274021 13803
GALAXY 31 (G-31)        
1 54243U 22153A   26157.53738325  .00000026  00000+0  00000+0 0  9994
2 54243   0.0238  85.6019 0001415 350.9516 250.8621  1.00272271  7027
GALAXY 32 (G-32)        
1 54244U 22153B   26157.40073403 -.00000161  00000+0  00000+0 0  9991
2 54244   0.0137  23.8026 0002346  13.8118 270.4767  1.00272104 13037
GALAXY 35 (G-35)        
1 54741U 22170A   26157.54292995 -.00000149  00000+0  00000+0 0  9992
2 54741   0.0132  56.5995 0002197  22.4697 278.2534  1.00272017 12786
GALAXY 36 (G-36)        
1 54742U 22170B   26157.54370995 -.00000172  00000+0  00000+0 0  9996
2 54742   0.0047 223.4787 0002778 219.0961 279.1320  1.00271658 12669
GALAXY 37 (G-37)        
1 57493U 23112A   26157.53616992  .00000061  00000+0  00000+0 0  9994
2 57493   0.0183 326.4759 0002110 109.7843 244.7203  1.00271478 10434
